[{"OBJECT_NAME":"SPARK 1","OBJECT_ID":"2016-081C","EPOCH":"2026-03-09T21:21:27.733248","MEAN_MOTION":14.59658645,"ECCENTRICITY":0.00224597,"INCLINATION":98.5453,"RA_OF_ASC_NODE":60.355,"ARG_OF_PERICENTER":266.7681,"MEAN_ANOMALY":93.0948,"EPHEMERIS_TYPE":0,"CLASSIFICATION_TYPE":"U","NORAD_CAT_ID":41900,"ELEMENT_SET_NO":999,"REV_AT_EPOCH":48978,"BSTAR":0.00021503269,"MEAN_MOTION_DOT":9.77e-6,"MEAN_MOTION_DDOT":0},{"OBJECT_NAME":"MACSAT 1 (M 1)","OBJECT_ID":"1990-043A","EPOCH":"2026-03-09T21:54:55.342656","MEAN_MOTION":14.75051497,"ECCENTRICITY":0.00891375,"INCLINATION":89.7412,"RA_OF_ASC_NODE":247.409,"ARG_OF_PERICENTER":352.5333,"MEAN_ANOMALY":7.4553,"EPHEMERIS_TYPE":0,"CLASSIFICATION_TYPE":"U","NORAD_CAT_ID":20607,"ELEMENT_SET_NO":999,"REV_AT_EPOCH":89974,"BSTAR":9.761876e-5,"MEAN_MOTION_DOT":7.18e-6,"MEAN_MOTION_DDOT":0}]
